KAITUO 1B               
1 40912U 15049P   17346.80362448  .00001425  00000-0  72738-4 0  9994
2 40912  97.4511 351.8373 0014092 305.4914 156.8055 15.18278615123388
TIANWANG 1C (TW-1C)     
1 40926U 15051B   17346.78734240  .00006862  00000-0  14183-3 0  9991
2 40926  97.2088  25.1265 0009040 233.7721 216.4002 15.46099689124487
TIANWANG 1B (TW-1B)     
1 40927U 15051C   17346.85785436  .00006570  00000-0  14137-3 0  9998
2 40927  97.2176  25.1298 0008762 248.1865 198.2444 15.44938253124429
TIANWANG 1A (TW-1A)     
1 40928U 15051D   17346.75753988  .00002306  00000-0  64634-4 0  9996
2 40928  97.2089  19.3299 0010400 277.0365 174.8799 15.37576115124124
LAPAN-A2 (IO-86)        
1 40931U 15052B   17346.63402050 -.00006412  00000-0 -98675-3 0  9994
2 40931   6.0000  40.3266 0012793 259.0315 100.8993 14.76548616119383
LQSAT                   
1 40958U 15057A   17346.76893828  .00000055  00000-0  16375-4 0  9992
2 40958  97.9620  58.8129 0017357 210.1448 149.8750 14.73006380117406
CHUBUSAT-2              
1 41338U 16012B   17346.51516464  .00000380  00000-0  23114-4 0  9998
2 41338  31.0044  59.5720 0013916  24.5015 335.6280 14.99886487 99782
CHUBUSAT-3              
1 41339U 16012C   17346.81880862  .00000374  00000-0  22494-4 0  9991
2 41339  31.0092  56.5102 0013574  34.7091 325.4448 15.00080898 99816
OUFTI-1                 
1 41458U 16025C   17346.79757411  .00001339  00000-0  73954-4 0  9996
2 41458  98.1640  34.5012 0173042  52.7780 308.9078 15.04041681 89410
E-ST@R-II               
1 41459U 16025D   17346.77410508  .00000640  00000-0  37913-4 0  9997
2 41459  98.1632  34.3833 0173962  53.2490 308.4546 15.03813707 89405
AAUSAT 4                
1 41460U 16025E   17346.71613969  .00001679  00000-0  91446-4 0  9993
2 41460  98.1570  34.5664 0165590  50.8901 310.6894 15.05018119 89430
NUSAT 1 (LO-87)         
1 41557U 16033B   17346.79980702  .00001676  00000-0  64286-4 0  9998
2 41557  97.4515  66.2735 0015612  96.4077 263.8940 15.27812957 85699
BEESAT-4                
1 41619U 16040W   17346.13578890  .00001546  00000-0  71593-4 0  9999
2 41619  97.4415  46.6698 0012385 158.9271 201.2477 15.21549054 69648
PRATHAM                 
1 41783U 16059A   17346.75315877  .00000054  00000-0  19905-4 0  9995
2 41783  98.1453  46.0639 0032741 322.5425  37.3495 14.62886525 64708
ALSAT 1N                
1 41789U 16059G   17346.79842980  .00000107  00000-0  29571-4 0  9994
2 41789  98.1460  46.9590 0027478 316.1543  43.7472 14.64109633 64748
NAYIF-1 (EO-88)         
1 42017U 17008BX  17346.83872944  .00001826  00000-0  78748-4 0  9991
2 42017  97.4742  47.8173 0005469 326.6953  33.3939 15.23828531 45688
LILACSAT-1              
1 42725U 98067ME  17346.87412217  .00020338  00000-0  23709-3 0  9993
2 42725  51.6376 222.4960 0004540 237.4228 122.6328 15.61629356 31334
MAX VALIER SAT          
1 42778U 17036P   17346.35436328  .00001190  00000-0  56856-4 0  9995
2 42778  97.4305  43.9364 0012884  11.5320 348.6208 15.20898928 26104
FOX-1B (AO-91)          
1 43017U 17073E   17346.82642997  .00000494  00000-0  44207-4 0  9999
2 43017  97.6934 280.9125 0261199 157.9332 203.3375 14.77795905  3583
